OBJECT_NAME,OBJECT_ID,EPOCH,MEAN_MOTION,ECCENTRICITY,INCLINATION,RA_OF_ASC_NODE,ARG_OF_PERICENTER,MEAN_ANOMALY,EPHEMERIS_TYPE,CLASSIFICATION_TYPE,NORAD_CAT_ID,ELEMENT_SET_NO,REV_AT_EPOCH,BSTAR,MEAN_MOTION_DOT,MEAN_MOTION_DDOT
STARLINK-37374,2026-111F,2026-06-16T04:38:18.914208,15.49338717,.00009586,53.1602,158.0723,104.0559,256.0557,0,U,69153,999,408,.72081013E-3,.39887E-3,0
STARLINK-37235,2026-111G,2026-06-16T15:59:21.975648,15.49327188,.0000797,53.1589,156.0546,111.0646,249.0449,0,U,69154,999,415,.11787E-2,.65702E-3,0
STARLINK-37329,2026-111H,2026-06-16T20:00:01.999008,15.60854253,.0001392,53.1592,153.6614,109.4982,168.7174,0,U,69155,999,549,-.33518E-1,-.248447E-1,0
STARLINK-37345,2026-111J,2026-06-16T20:00:01.999008,15.62533525,.0001036,53.1597,153.6026,111.6653,195.2615,0,U,69156,999,549,-.31763E-1,-.2510323E-1,0
STARLINK-37353,2026-111K,2026-06-16T20:00:01.999008,15.62845729,.0001,53.1597,153.5944,113.0445,197.9108,0,U,69157,999,549,-.31182E-1,-.2497023E-1,0
STARLINK-37363,2026-111L,2026-06-16T20:00:01.999008,15.62644923,.0001078,53.1599,153.5986,115.9419,192.6321,0,U,69158,999,549,-.31112E-1,-.2475089E-1,0
STARLINK-37343,2026-111M,2026-06-16T04:38:30.752736,15.49377416,.00012521,53.1601,158.0719,136.0278,224.0831,0,U,69159,999,408,.137319E-2,.76863E-3,0
STARLINK-37328,2026-111N,2026-06-16T20:00:01.999008,15.63332573,.000115,53.1601,153.5576,111.5341,217.0623,0,U,69160,999,549,-.30587E-1,-.2497225E-1,0
STARLINK-37311,2026-111P,2026-06-16T20:00:01.999008,15.66391964,.0000902,53.1596,153.6451,95.8331,190.3558,0,U,69161,999,549,-.2717E-1,-.2507328E-1,0
STARLINK-36286,2026-111Q,2026-06-16T20:00:01.999008,15.53472421,.0001134,53.1599,153.9313,66.4662,78.8987,0,U,69162,999,549,-.42517E-1,-.2396618E-1,0
STARLINK-37196,2026-111R,2026-06-16T20:20:06.147168,15.68153596,.0005045,53.1593,153.5863,339.5783,20.5032,0,U,69163,999,420,-.10467E-1,-.1068549E-1,0
STARLINK-36288,2026-111S,2026-06-16T20:00:01.999008,15.55247649,.0001195,53.1596,153.9142,83.3011,70.5322,0,U,69164,999,549,-.4002E-1,-.2407406E-1,0
STARLINK-37445,2026-111T,2026-06-16T20:00:01.999008,15.52557082,.0000734,53.1603,154.0012,95.8265,14.7392,0,U,69165,999,549,-.37824E-1,-.2099244E-1,0
STARLINK-37491,2026-111U,2026-06-16T20:00:01.999008,15.61038631,.0001479,53.1594,153.7446,98.8803,138.1546,0,U,69166,999,549,-.33017E-1,-.2467674E-1,0
STARLINK-37474,2026-111V,2026-06-16T20:17:19.034016,15.65878322,.0004889,53.1596,153.5725,334.8246,25.2531,0,U,69167,999,420,-.11225E-1,-.1046408E-1,0
STARLINK-37469,2026-111W,2026-06-16T15:53:03.509088,15.49333778,.0001028,53.1589,156.0225,88.5628,271.5499,0,U,69168,999,415,.11373E-2,.63371E-3,0
STARLINK-37515,2026-111X,2026-06-16T20:00:01.999008,15.57347109,.0001323,53.1595,153.7884,93.5804,121.3368,0,U,69169,999,549,-.37782E-1,-.2452472E-1,0
STARLINK-37437,2026-111Y,2026-06-16T20:00:01.999008,15.61061724,.0001301,53.1603,153.6481,109.5413,174.3575,0,U,69170,999,549,-.32834E-1,-.2457482E-1,0
STARLINK-37392,2026-111Z,2026-06-16T20:00:01.999008,15.59153097,.0001524,53.1594,153.7313,100.8508,141.3255,0,U,69171,999,549,-.2012E-1,-.1438044E-1,0
STARLINK-37472,2026-111AA,2026-06-16T20:00:01.999008,15.49287545,.0000811,53.1601,154.2077,145.1384,221.4722,0,U,69172,999,549,.1444E-2,.8063E-3,0
STARLINK-37461,2026-111AB,2026-06-16T06:24:01.272096,15.49354122,.0001752,53.1597,157.8148,77.3771,282.7433,0,U,69173,999,409,.74917E-3,.41506E-3,0
STARLINK-37333,2026-111AC,2026-06-16T20:00:01.999008,15.55130747,.0001086,53.1602,153.9351,89.1919,53.4572,0,U,69174,999,549,-.41638E-1,-.2532583E-1,0
STARLINK-37385,2026-111AD,2026-06-16T04:40:04.769760,15.49349443,.00012129,53.1597,158.0776,108.2348,251.8793,0,U,69175,999,408,.12714854E-2,.71013E-3,0
STARLINK-37414,2026-111AE,2026-06-16T20:00:01.999008,15.56317179,.0001398,53.1592,153.7508,104.0438,128.7622,0,U,69176,999,549,-.39533E-1,-.2466315E-1,0
STRIX-7,2026-112A,2026-06-16T18:33:21.246048,15.01434159,.0023201,44.9055,194.6240,44.7077,315.5660,0,U,69177,999,381,.1462E-3,.1692E-4,0
SHENZHOU-23 (SZ-23),2026-113A,2026-06-16T11:09:48.426912,15.60781847,.0007507,41.4697,326.3961,71.1015,289.0637,0,U,69180,999,29311,.22289539E-3,.1883E-3,0
STARLINK-37380,2026-114A,2026-06-16T15:35:19.195008,15.78123222,.000087,53.1573,205.1922,109.6949,250.4166,0,U,69182,999,468,.91479E-3,.1617E-2,0
STARLINK-37089,2026-114B,2026-06-16T14:02:46.711968,15.78112263,.0001003,53.1574,205.5039,116.6482,243.4642,0,U,69183,999,467,.79837E-3,.140615E-2,0
STARLINK-37428,2026-114C,2026-06-16T14:00:45.362304,15.78071637,.00012,53.1575,205.4936,65.5963,294.5184,0,U,69184,999,467,.83145E-3,.146301E-2,0
