STARLINK-37374          
1 69153U 26111F   26167.19327447  .00039887  00000+0  72081-3 0  9999
2 69153  53.1602 158.0723 0000958 104.0559 256.0557 15.49338717  4085
STARLINK-37235          
1 69154U 26111G   26167.66622657  .00065702  00000+0  11787-2 0  9993
2 69154  53.1589 156.0546 0000797 111.0646 249.0449 15.49327188  4157
STARLINK-37329          
1 69155U 26111H   26167.83335647 -.02484470  00000+0 -33518-1 0  9999
2 69155  53.1592 153.6614 0001392 109.4982 168.7174 15.60854253  5498
STARLINK-37345          
1 69156U 26111J   26167.83335647 -.02510323  00000+0 -31763-1 0  9997
2 69156  53.1597 153.6026 0001036 111.6653 195.2615 15.62533525  5499
STARLINK-37353          
1 69157U 26111K   26167.83335647 -.02497023  00000+0 -31182-1 0  9994
2 69157  53.1597 153.5944 0001000 113.0445 197.9108 15.62845729  5492
STARLINK-37363          
1 69158U 26111L   26167.83335647 -.02475089  00000+0 -31112-1 0  9996
2 69158  53.1599 153.5986 0001078 115.9419 192.6321 15.62644923  5490
STARLINK-37343          
1 69159U 26111M   26167.19341149  .00076863  00000+0  13732-2 0  9992
2 69159  53.1601 158.0719 0001252 136.0278 224.0831 15.49377416  4085
STARLINK-37328          
1 69160U 26111N   26167.83335647 -.02497225  00000+0 -30587-1 0  9990
2 69160  53.1601 153.5576 0001150 111.5341 217.0623 15.63332573  5492
STARLINK-37311          
1 69161U 26111P   26167.83335647 -.02507328  00000+0 -27170-1 0  9991
2 69161  53.1596 153.6451 0000902  95.8331 190.3558 15.66391964  5498
STARLINK-36286          
1 69162U 26111Q   26167.83335647 -.02396618  00000+0 -42517-1 0  9992
2 69162  53.1599 153.9313 0001134  66.4662  78.8987 15.53472421  5491
STARLINK-37196          
1 69163U 26111R   26167.84729337 -.01068549  00000+0 -10467-1 0  9994
2 69163  53.1593 153.5863 0005045 339.5783  20.5032 15.68153596  4203
STARLINK-36288          
1 69164U 26111S   26167.83335647 -.02407406  00000+0 -40020-1 0  9999
2 69164  53.1596 153.9142 0001195  83.3011  70.5322 15.55247649  5499
STARLINK-37445          
1 69165U 26111T   26167.83335647 -.02099244  00000+0 -37824-1 0  9995
2 69165  53.1603 154.0012 0000734  95.8265  14.7392 15.52557082  5493
STARLINK-37491          
1 69166U 26111U   26167.83335647 -.02467674  00000+0 -33017-1 0  9992
2 69166  53.1594 153.7446 0001479  98.8803 138.1546 15.61038631  5494
STARLINK-37474          
1 69167U 26111V   26167.84535919 -.01046408  00000+0 -11225-1 0  9992
2 69167  53.1596 153.5725 0004889 334.8246  25.2531 15.65878322  4208
STARLINK-37469          
1 69168U 26111W   26167.66184617  .00063371  00000+0  11373-2 0  9998
2 69168  53.1589 156.0225 0001028  88.5628 271.5499 15.49333778  4159
STARLINK-37515          
1 69169U 26111X   26167.83335647 -.02452472  00000+0 -37782-1 0  9998
2 69169  53.1595 153.7884 0001323  93.5804 121.3368 15.57347109  5499
STARLINK-37437          
1 69170U 26111Y   26167.83335647 -.02457482  00000+0 -32834-1 0  9999
2 69170  53.1603 153.6481 0001301 109.5413 174.3575 15.61061724  5492
STARLINK-37392          
1 69171U 26111Z   26167.83335647 -.01438044  00000+0 -20120-1 0  9997
2 69171  53.1594 153.7313 0001524 100.8508 141.3255 15.59153097  5494
STARLINK-37472          
1 69172U 26111AA  26167.83335647  .00080630  00000+0  14440-2 0  9998
2 69172  53.1601 154.2077 0000811 145.1384 221.4722 15.49287545  5493
STARLINK-37461          
1 69173U 26111AB  26167.26668139  .00041506  00000+0  74917-3 0  9996
2 69173  53.1597 157.8148 0001752  77.3771 282.7433 15.49354122  4097
STARLINK-37333          
1 69174U 26111AC  26167.83335647 -.02532583  00000+0 -41638-1 0  9991
2 69174  53.1602 153.9351 0001086  89.1919  53.4572 15.55130747  5497
STARLINK-37385          
1 69175U 26111AD  26167.19449965  .00071013  00000+0  12715-2 0  9997
2 69175  53.1597 158.0776 0001212 108.2348 251.8793 15.49349443  4089
STARLINK-37414          
1 69176U 26111AE  26167.83335647 -.02466315  00000+0 -39533-1 0  9993
2 69176  53.1592 153.7508 0001398 104.0438 128.7622 15.56317179  5497
STRIX-7                 
1 69177U 26112A   26167.77316257  .00001692  00000+0  14620-3 0  9995
2 69177  44.9055 194.6240 0023201  44.7077 315.5660 15.01434159  3813
SHENZHOU-23 (SZ-23)     
1 69180U 26113A   26167.46514383  .00018830  00000+0  22290-3 0  9990
2 69180  41.4697 326.3961 0007507  71.1015 289.0637 15.60781847293119
STARLINK-37380          
1 69182U 26114A   26167.64952772  .00161700  00000+0  91479-3 0  9991
2 69182  53.1573 205.1922 0000870 109.6949 250.4166 15.78123222  4681
STARLINK-37089          
1 69183U 26114B   26167.58526287  .00140615  00000+0  79837-3 0  9999
2 69183  53.1574 205.5039 0001003 116.6482 243.4642 15.78112263  4678
STARLINK-37428          
1 69184U 26114C   26167.58385836  .00146301  00000+0  83145-3 0  9998
2 69184  53.1575 205.4936 0001200  65.5963 294.5184 15.78071637  4677
